GLOBALSTAR M075 [+]     
1 37192U 10054E   24087.42749101 -.00000089  00000+0  83790-4 0  9999
2 37192  51.9931 101.8223 0000360  76.9929  73.9287 12.62272096619582
GLOBALSTAR M073 [+]     
1 37193U 10054F   24087.51104417 -.00000088  00000+0  85928-4 0  9999
2 37193  52.0088  15.0442 0000675  78.0178  93.6030 12.62262758621420
GLOBALSTAR M083 [+]     
1 37739U 11033A   24087.36578206 -.00000069  00000+0  19522-3 0  9992
2 37739  51.9876 324.8314 0000622  67.5899 103.7529 12.62267171590428
GLOBALSTAR M088 [+]     
1 37740U 11033B   24087.56624369 -.00000101  00000+0  15709-4 0  9999
2 37740  51.9719 230.0852 0000660  89.3917  33.9139 12.62266430585990
GLOBALSTAR M091 [+]     
1 37741U 11033C   24087.55502059 -.00000068  00000+0  19991-3 0  9998
2 37741  51.9988 192.8752 0000522  84.4799 288.2082 12.62272821586785
GLOBALSTAR M085 [+]     
1 37742U 11033D   24087.46328501 -.00000065  00000+0  21482-3 0  9992
2 37742  51.9853 144.5907 0000310  79.2715 295.4189 12.62269144587286
GLOBALSTAR M081 [+]     
1 37743U 11033E   24087.40995146 -.00000054  00000+0  27700-3 0  9999
2 37743  51.9946 147.2639 0000500  76.5596 296.0919 12.62263585587427
GLOBALSTAR M089 [+]     
1 37744U 11033F   24087.29168181 -.00000076  00000+0  15597-3 0  9993
2 37744  51.9915 101.9355 0000715 110.5026 263.7185 12.62261292588252
